IRIDIUM 155             
1 43573U 18061E   25200.45479696  .00000041  00000+0  75823-5 0  9991
2 43573  86.3983 195.6960 0002103  83.0888 277.0547 14.34217729365666
IRIDIUM 154             
1 43574U 18061F   25200.50553819  .00000072  00000+0  18621-4 0  9994
2 43574  86.3988 195.7918 0002278  88.7616 271.3841 14.34217954365721
IRIDIUM 163             
1 43575U 18061G   25200.48651011  .00000078  00000+0  20635-4 0  9999
2 43575  86.3984 195.7255 0002379  85.0351 275.1116 14.34218000365696
IRIDIUM 156             
1 43576U 18061H   25200.46113926  .00000036  00000+0  56952-5 0  9992
2 43576  86.3985 195.7432 0001955  85.2346 274.9073 14.34217753365682
IRIDIUM 164             
1 43577U 18061J   25200.51188079 -.00000017  00000+0 -13158-4 0  9991
2 43577  86.3991 195.7571 0002126  94.9963 265.1476 14.34217283365730
IRIDIUM 159             
1 43578U 18061K   25200.54993634  .00000000  00000+0 -70266-5 0  9991
2 43578  86.3989 195.6849 0002375  91.2400 268.9068 14.34217428365703
IRIDIUM 180             
1 43922U 19002A   25200.54943177 -.00000005  00000+0 -87656-5 0  9994
2 43922  86.4003 132.6687 0002216  82.0920 278.0527 14.34217928341312
IRIDIUM 176             
1 43923U 19002B   25200.32113707  .00000712  00000+0  10902-3 0  9990
2 43923  86.6125 132.7542 0002411  70.5595 289.5883 14.72258628350279
IRIDIUM 168             
1 43924U 19002C   25200.33378418  .00000018  00000+0 -70358-6 0  9998
2 43924  86.4003 132.8267 0002251  83.7682 276.3770 14.34217708341263
IRIDIUM 173             
1 43925U 19002D   25200.32110746  .00000214  00000+0  69374-4 0  9997
2 43925  86.3999 132.7345 0002280  79.9074 280.2379 14.34218007341247
IRIDIUM 169             
1 43926U 19002E   25200.42787020  .00000257  00000+0  77477-4 0  9994
2 43926  86.4269 164.2755 0002079  48.5145 311.6232 14.38606829342381
IRIDIUM 172             
1 43927U 19002F   25200.31475686  .00000008  00000+0 -40370-5 0  9993
2 43927  86.4000 132.7439 0002419  83.1632 276.9839 14.34217652341257
IRIDIUM 175             
1 43928U 19002G   25200.38411187  .00000604  00000+0  91810-4 0  9992
2 43928  86.1481  83.4067 0001406  92.8620 267.2757 14.72246528350276
IRIDIUM 171             
1 43929U 19002H   25200.36549594  .00000045  00000+0  91838-5 0  9995
2 43929  86.4009 132.9923 0001988  91.0024 269.1400 14.34218132341253
IRIDIUM 170             
1 43930U 19002J   25200.53121189  .00000730  00000+0  11181-3 0  9994
2 43930  86.6132 132.6701 0002580  77.5954 282.5552 14.72246980350313
IRIDIUM 167             
1 43931U 19002K   25200.56845929  .00000031  00000+0  41130-5 0  9996
2 43931  86.4001 132.6577 0001812  85.0665 275.0737 14.34217871341281
IRIDIUM 181             
1 56726U 23068S   25200.46403433  .00000165  00000+0  42878-4 0  9995
2 56726  86.4524 195.7584 0002277 103.8428 256.3026 14.43310528114449
IRIDIUM 177             
1 56727U 23068T   25200.31706128  .00000846  00000+0  10790-3 0  9990
2 56727  86.1992 126.8849 0002224  89.9610 270.1866 14.80230043117122
IRIDIUM 174             
1 56728U 23068U   25200.31495584  .00000740  00000+0  11347-3 0  9994
2 56728  86.6133 132.8747 0003010  77.2325 282.9228 14.72253269117046
IRIDIUM 178             
1 56729U 23068V   25200.37376111  .00000838  00000+0  10687-3 0  9999
2 56729  86.6590 164.4058 0002677  85.1738 274.9789 14.80237561117133
IRIDIUM 179             
1 56730U 23068W   25200.43599810  .00000959  00000+0  12273-3 0  9998
2 56730  86.6827 172.3460 0002424  87.2001 272.9498 14.80234508117143
